OBJECT_NAME,OBJECT_ID,EPOCH,MEAN_MOTION,ECCENTRICITY,INCLINATION,RA_OF_ASC_NODE,ARG_OF_PERICENTER,MEAN_ANOMALY,EPHEMERIS_TYPE,CLASSIFICATION_TYPE,NORAD_CAT_ID,ELEMENT_SET_NO,REV_AT_EPOCH,BSTAR,MEAN_MOTION_DOT,MEAN_MOTION_DDOT
SUOMI NPP,2011-061A,2026-07-23T06:55:13.780416,14.19523868,.00011718,98.7956,144.9192,180.4037,179.7139,0,U,37849,999,76356,.43853768E-4,.48E-6,0
YAOGAN-12,2011-066B,2026-07-23T07:29:41.804160,15.26949733,.00110067,97.1130,241.1858,97.6817,262.5673,0,U,37875,999,81755,.29380399E-3,.7719E-4,0
BEIDOU-2 M4,2012-018B,2026-07-20T22:47:10.972320,1.86229353,.00122504,55.6263,302.9476,272.0854,87.8062,0,U,38251,999,9657,0,-.102E-5,0
ARIRANG-3 (KOMPSAT-3),2012-025B,2026-07-23T07:12:46.268064,14.62234437,.00056859,98.1190,161.1422,16.4291,343.7094,0,U,38338,999,75662,.88897186E-4,.401E-5,0
HORYU-2,2012-025D,2026-07-23T04:56:45.502944,14.91261116,.00091665,98.2215,338.6290,69.5826,290.6375,0,U,38340,999,75409,.30193329E-3,.2945E-4,0
CSSWE,2012-048D,2026-07-22T08:47:56.429376,15.46278567,.00396264,64.6638,334.1606,162.8261,197.4230,0,U,38761,999,12183,.68752483E-3,.3501E-3,0
CP5,2012-048F,2026-07-23T06:12:13.498848,15.28451345,.00725266,64.6454,33.3145,164.2630,196.0778,0,U,38763,999,12227,.51680372E-3,.1536E-3,0
METOP-B,2012-049A,2026-07-23T07:12:08.999424,14.21447997,.00014234,98.6484,255.0750,214.4441,145.6644,0,U,38771,999,71839,.51602701E-4,.7E-6,0
SJ-9A,2012-056A,2026-07-23T06:26:49.518816,14.85541157,.00266036,97.6736,174.9219,136.0060,224.3279,0,U,38860,999,70494,.11512656E-3,.948E-5,0
COSMOS 2484 (RODNIK-S 6),2013-001C,2026-07-23T06:54:11.920608,12.42940422,.00253527,82.5007,199.4478,317.5690,42.3429,0,U,39059,999,61304,-.15323562E-3,-.12E-6,0
SARAL,2013-009A,2026-07-23T06:46:44.004864,14.32897216,.00021655,98.5560,30.3937,148.6764,211.4550,0,U,39086,999,70077,.39496564E-4,.64E-6,0
AAUSAT 3,2013-009B,2026-07-22T23:11:28.133376,14.39978734,.00126664,98.3714,26.9485,103.4647,256.7954,0,U,39087,999,70232,.17843313E-3,.519E-5,0
STRAND-1,2013-009E,2026-07-23T01:12:19.700064,14.37182344,.00097296,98.3941,23.4053,120.1275,240.0877,0,U,39090,999,70221,.95167118E-4,.241E-5,0
BRITE-AUSTRIA,2013-009F,2026-07-23T00:13:00.491808,14.36554832,.00111494,98.4015,22.5617,129.2260,230.9918,0,U,39091,999,70219,.64070015E-4,.146E-5,0
UNIBRITE,2013-009G,2026-07-23T00:35:16.771488,14.36426019,.00101146,98.4054,22.6964,125.6104,234.6026,0,U,39092,999,70213,.67064813E-4,.154E-5,0
AIST-2 (RS43),2013-015D,2026-07-23T06:57:36.010368,15.26629440,.00165932,64.8683,139.2482,248.6932,111.2428,0,U,39133,999,72941,.2452367E-3,.6272E-4,0
GAOFEN-1,2013-018A,2026-07-23T07:39:02.643840,14.76525932,.00177978,97.9078,275.6489,145.7423,214.4939,0,U,39150,999,71357,.97894361E-4,.633E-5,0
NEE-01 PEGASO,2013-018B,2026-07-22T20:03:20.143584,14.93816948,.00134607,98.1267,349.1763,51.2724,308.9696,0,U,39151,999,71602,.20250938E-3,.209E-4,0
TURKSAT-3USAT,2013-018C,2026-07-23T04:29:14.635680,14.96617550,.00110615,97.7919,294.8672,346.3697,13.7224,0,U,39152,999,71647,.26624484E-3,.2978E-4,0
CUBEBUG-1 (CAPITAN BETO),2013-018D,2026-07-23T04:27:46.680480,14.97487206,.00117438,98.1695,5.7415,35.6390,324.5612,0,U,39153,999,71645,.26419262E-3,.3018E-4,0
PROBA-V,2013-021A,2026-07-22T21:27:19.909152,14.23604460,.00049398,98.3611,180.7425,41.6695,318.4860,0,U,39159,999,68619,.40809693E-4,.52E-6,0
ESTCUBE 1,2013-021C,2026-07-23T03:03:30.326112,14.81493197,.00067203,97.7273,257.0483,254.0598,105.9875,0,U,39161,999,71034,.16808199E-3,.1267E-4,0
ARIRANG-5 (KOMPSAT-5),2013-042A,2026-07-23T06:43:23.841120,15.04503496,.0004373,97.6202,30.4733,33.1306,327.0193,0,U,39227,999,70928,.6224564E-4,.811E-5,0
GONETS-M 5,2013-048A,2026-07-23T08:07:25.087584,12.42893193,.00175884,82.4854,320.8456,132.8470,227.4090,0,U,39249,999,58337,.63544398E-3,.98E-6,0
GONETS-M 7,2013-048C,2026-07-23T07:13:07.799808,12.42916504,.00183888,82.4922,323.8101,134.1188,226.1408,0,U,39251,999,58332,.15504316E-2,.225E-5,0
FENGYUN 3C,2013-052A,2026-07-23T05:29:06.993888,14.15762165,.00134471,98.5007,176.4536,280.9532,79.0130,0,U,39260,999,66366,.58124472E-4,.73E-6,0
CASSIOPE,2013-055A,2026-07-23T05:01:10.590240,15.27705346,.02814763,80.9136,22.8700,300.6619,56.7142,0,U,39265,999,67316,.22139253E-3,.20653E-3,-.46464E-6
APRIZESAT 7,2013-066A,2026-07-23T07:29:24.736704,14.91633577,.00373884,97.7725,157.0178,91.4811,269.0691,0,U,39416,999,68661,.10065051E-3,.967E-5,0
ZACUBE-1 (TSHEPISOSAT),2013-066B,2026-07-20T20:47:42.553536,15.01347026,.00440791,97.7999,164.3670,137.0238,223.4444,0,U,39417,999,68578,.14536999E-3,.1847E-4,0
APRIZESAT 8,2013-066K,2026-07-23T06:14:40.445376,14.87705940,.00461752,97.8232,151.2291,165.3498,194.9069,0,U,39425,999,68503,.83086653E-4,.715E-5,0
