{"epoch":1784817359,"count":18317,"objects":[{"id":"37849","name":"NPP","type":"PAYLOAD","l1":"1 37849U 11061A   26204.28835394  .00000048  00000-0  43854-4 0  9996","l2":"2 37849  98.7956 144.9192 0001172 180.4037 179.7139 14.19523868763562"},{"id":"37875","name":"YAOGAN 12","type":"PAYLOAD","l1":"1 37875U 11066B   26204.31228940  .00007719  00000-0  29380-3 0  9996","l2":"2 37875  97.1130 241.1858 0011007  97.6817 262.5673 15.26949733817555"},{"id":"38251","name":"BEIDOU 13","type":"PAYLOAD","l1":"1 38251U 12018B   26201.94943255 -.00000102  00000-0  00000-0 0  9997","l2":"2 38251  55.6263 302.9476 0012250 272.0854  87.8062  1.86229353 96574"},{"id":"38338","name":"KOMPSAT 3","type":"PAYLOAD","l1":"1 38338U 12025B   26204.30053551  .00000401  00000-0  88897-4 0  9990","l2":"2 38338  98.1190 161.1422 0005686  16.4291 343.7094 14.62234437756622"},{"id":"38340","name":"HORYU 2","type":"PAYLOAD","l1":"1 38340U 12025D   26204.20608221  .00002945  00000-0  30193-3 0  9992","l2":"2 38340  98.2215 338.6290 0009166  69.5826 290.6375 14.91261116754095"},{"id":"38761","name":"CSSWE","type":"PAYLOAD","l1":"1 38761U 12048D   26203.36662534  .00035010  00000-0  68752-3 0  9998","l2":"2 38761  64.6638 334.1606 0039626 162.8261 197.4230 15.46278567121837"},{"id":"38763","name":"CP5","type":"PAYLOAD","l1":"1 38763U 12048F   26204.25848957  .00015360  00000-0  51680-3 0  9992","l2":"2 38763  64.6454  33.3145 0072527 164.2630 196.0778 15.28451345122272"},{"id":"38771","name":"METOP-B","type":"PAYLOAD","l1":"1 38771U 12049A   26204.30010416  .00000070  00000-0  51603-4 0  9997","l2":"2 38771  98.6484 255.0750 0001423 214.4441 145.6644 14.21447997718397"},{"id":"38860","name":"SJ-9A","type":"PAYLOAD","l1":"1 38860U 12056A   26204.26862869  .00000948  00000-0  11513-3 0  9995","l2":"2 38860  97.6736 174.9219 0026604 136.0060 224.3279 14.85541157704946"},{"id":"39059","name":"COSMOS 2484","type":"PAYLOAD","l1":"1 39059U 13001C   26204.28763797 -.00000012  00000-0 -15324-3 0  9997","l2":"2 39059  82.5007 199.4478 0025353 317.5690  42.3429 12.42940422613049"},{"id":"39086","name":"SARAL","type":"PAYLOAD","l1":"1 39086U 13009A   26204.28245376  .00000064  00000-0  39497-4 0  9996","l2":"2 39086  98.5560  30.3937 0002165 148.6764 211.4550 14.32897216700778"},{"id":"39087","name":"AAUSAT3","type":"PAYLOAD","l1":"1 39087U 13009B   26203.96629784  .00000519  00000-0  17843-3 0  9995","l2":"2 39087  98.3714  26.9485 0012666 103.4647 256.7954 14.39978734702328"},{"id":"39090","name":"STRAND 1","type":"PAYLOAD","l1":"1 39090U 13009E   26204.05022801  .00000241  00000-0  95167-4 0  9995","l2":"2 39090  98.3941  23.4053 0009730 120.1275 240.0877 14.37182344702218"},{"id":"39091","name":"BRITE-A TUGSAT-1","type":"PAYLOAD","l1":"1 39091U 13009F   26204.00903347  .00000146  00000-0  64070-4 0  9997","l2":"2 39091  98.4015  22.5617 0011149 129.2260 230.9918 14.36554832702194"},{"id":"39092","name":"BRITE-U UNIBRITE","type":"PAYLOAD","l1":"1 39092U 13009G   26204.02449967  .00000154  00000-0  67065-4 0  9999","l2":"2 39092  98.4054  22.6964 0010115 125.6104 234.6026 14.36426019702133"},{"id":"39133","name":"AIST 2","type":"PAYLOAD","l1":"1 39133U 13015D   26204.29000012  .00006272  00000-0  24524-3 0  9994","l2":"2 39133  64.8683 139.2482 0016593 248.6932 111.2428 15.26629440729414"},{"id":"39150","name":"GAOFEN 1","type":"PAYLOAD","l1":"1 39150U 13018A   26204.31878060  .00000633  00000-0  97894-4 0  9991","l2":"2 39150  97.9078 275.6489 0017798 145.7423 214.4939 14.76525932713578"},{"id":"39151","name":"NEE 01 PEGASUS","type":"PAYLOAD","l1":"1 39151U 13018B   26203.83564981  .00002090  00000-0  20251-3 0  9993","l2":"2 39151  98.1267 349.1763 0013461  51.2724 308.9696 14.93816948716023"},{"id":"39152","name":"TURKSAT 3U","type":"PAYLOAD","l1":"1 39152U 13018C   26204.18697495  .00002978  00000-0  26624-3 0  9995","l2":"2 39152  97.7919 294.8672 0011061 346.3697  13.7224 14.96617550716477"},{"id":"39153","name":"CUBEBUG 1","type":"PAYLOAD","l1":"1 39153U 13018D   26204.18595695  .00003018  00000-0  26419-3 0  9993","l2":"2 39153  98.1695   5.7415 0011744  35.6390 324.5612 14.97487206716450"},{"id":"39159","name":"PROBA V","type":"PAYLOAD","l1":"1 39159U 13021A   26203.89398043  .00000052  00000-0  40810-4 0  9995","l2":"2 39159  98.3611 180.7425 0004940  41.6695 318.4860 14.23604460686192"},{"id":"39161","name":"ESTCUBE 1","type":"PAYLOAD","l1":"1 39161U 13021C   26204.12743433  .00001267  00000-0  16808-3 0  9990","l2":"2 39161  97.7273 257.0483 0006720 254.0598 105.9875 14.81493197710341"},{"id":"39227","name":"KOMPSAT 5","type":"PAYLOAD","l1":"1 39227U 13042A   26204.28013705  .00000811  00000-0  62246-4 0  9997","l2":"2 39227  97.6202  30.4733 0004373  33.1306 327.0193 15.04503496709282"},{"id":"39249","name":"GONETS M 05","type":"PAYLOAD","l1":"1 39249U 13048A   26204.33848481  .00000098  00000-0  63544-3 0  9998","l2":"2 39249  82.4854 320.8456 0017588 132.8470 227.4090 12.42893193583374"},{"id":"39251","name":"GONETS M 07","type":"PAYLOAD","l1":"1 39251U 13048C   26204.30078472  .00000225  00000-0  15504-2 0  9997","l2":"2 39251  82.4922 323.8101 0018389 134.1188 226.1408 12.42916504583320"},{"id":"39260","name":"FENGYUN 3C","type":"PAYLOAD","l1":"1 39260U 13052A   26204.22855317  .00000073  00000-0  58124-4 0  9992","l2":"2 39260  98.5007 176.4536 0013447 280.9532  79.0130 14.15762165663666"},{"id":"39265","name":"CASSIOPE","type":"PAYLOAD","l1":"1 39265U 13055A   26204.20915035  .00020653 -46464-6  22139-3 0  9995","l2":"2 39265  80.9136  22.8700 0281476 300.6619  56.7142 15.27705346673164"},{"id":"39416","name":"APRIZESAT 7","type":"PAYLOAD","l1":"1 39416U 13066A   26204.31209186  .00000967  00000-0  10065-3 0  9990","l2":"2 39416  97.7725 157.0178 0037388  91.4811 269.0691 14.91633577686610"},{"id":"39417","name":"ZACUBE","type":"PAYLOAD","l1":"1 39417U 13066B   26201.86646474  .00001847  00000-0  14537-3 0  9999","l2":"2 39417  97.7999 164.3670 0044079 137.0238 223.4444 15.01347026685787"},{"id":"39425","name":"APRIZESAT 8","type":"PAYLOAD","l1":"1 39425U 13066K   26204.26019034  .00000715  00000-0  83087-4 0  9991","l2":"2 39425  97.8232 151.2291 0046175 165.3498 194.9069 14.87705940685031"}]}